STARLINK-1465           
1 45731U 20038B   23261.46828643  .00031164  00000+0  20991-2 0  9995
2 45731  53.0552 331.3381 0001360  90.5116 269.6029 15.06448712181020
STARLINK-1466           
1 45732U 20038C   23261.45723042  .00029649  00000+0  19988-2 0  9991
2 45732  53.0549 331.3874 0001295  87.8124 272.3013 15.06441131180053
STARLINK-1467           
1 45733U 20038D   23261.41379798  .00010715  00000+0  45957-3 0  9993
2 45733  53.0645 305.9890 0006160 354.4024   5.6903 15.23257651181523
STARLINK-1468           
1 45734U 20038E   23261.41746003  .00010050  00000+0  47559-3 0  9993
2 45734  53.0526 313.8712 0001717 159.2885 200.8179 15.19954382180301
STARLINK-1471           
1 45735U 20038F   23261.41668511  .00029359  00000+0  19793-2 0  9991
2 45735  53.0553 331.5709 0001462 100.2633 259.8520 15.06444285180046
STARLINK-1472           
1 45736U 20038G   23261.16381277  .00097194  00000+0  84055-3 0  9991
2 45736  53.0505 167.3261 0004106  91.5144 268.6343 15.68429138183478
STARLINK-1474           
1 45738U 20038J   23261.47197284  .00030269  00000+0  20396-2 0  9997
2 45738  53.0541 331.3245 0001386  89.6728 270.4419 15.06448641181170
STARLINK-1475           
1 45739U 20038K   23261.35308820  .00019616  00000+0  13312-2 0  9998
2 45739  53.0534 291.8441 0001401  78.1815 281.9331 15.06425532180598
STARLINK-1479           
1 45740U 20038L   23261.47935031  .00001433  00000+0  11506-3 0  9995
2 45740  53.0547 331.2874 0001357  95.0696 265.0448 15.06412133180054
STARLINK-1480           
1 45741U 20038M   23261.51620467  .00029228  00000+0  19706-2 0  9996
2 45741  53.0545 331.1234 0001334  97.2760 262.8381 15.06444330180070
STARLINK-1481           
1 45742U 20038N   23261.50883296  .00029553  00000+0  19918-2 0  9993
2 45742  53.0549 331.1577 0001253  86.9488 273.1645 15.06452081180055
STARLINK-1483           
1 45743U 20038P   23261.52261742  .00028839  00000+0  19470-2 0  9991
2 45743  53.0553 330.9871 0001469  66.1911 293.9232 15.06401220180067
STARLINK-1500           
1 45744U 20038Q   23261.43143264  .00025952  00000+0  17529-2 0  9996
2 45744  53.0543 331.5055 0001342  97.3295 262.7846 15.06439545180054
STARLINK-1503           
1 45745U 20038R   23261.48671657  .00028932  00000+0  19505-2 0  9991
2 45745  53.0552 331.2590 0001382  94.9638 265.1509 15.06451904180050
STARLINK-1504           
1 45746U 20038S   23261.43511909  .00006559  00000+0  45864-3 0  9999
2 45746  53.0555 331.4878 0001413  99.8196 260.2952 15.06414562180049
STARLINK-1506           
1 45747U 20038T   23261.50514320  .00029005  00000+0  19552-2 0  9993
2 45747  53.0543 331.1757 0001343  86.5775 273.5367 15.06455823180062
STARLINK-1507           
1 45748U 20038U   23261.42774648  .00021577  00000+0  14616-2 0  9998
2 45748  53.0548 331.5292 0001276  92.5326 267.5809 15.06436524180049
STARLINK-1391           
1 45750U 20038W   23261.45538800  .00023232  00000+0  15717-2 0  9995
2 45750  53.0531 311.3952 0001321  91.2512 268.8628 15.06439641180346
STARLINK-1464           
1 45751U 20038X   23261.45170237  .00022759  00000+0  15402-2 0  9996
2 45751  53.0539 311.4149 0001480 100.4557 259.6599 15.06440499180340
STARLINK-1476           
1 45753U 20038Z   23261.46276541  .00024602  00000+0  16630-2 0  9997
2 45753  53.0537 311.3648 0001440  78.2408 281.8742 15.06439802181452
STARLINK-1477           
1 45754U 20038AA  23261.46644742  .00020636  00000+0  13989-2 0  9997
2 45754  53.0543 311.3492 0001640  92.7471 267.3706 15.06435437180346
STARLINK-1478           
1 45755U 20038AB  23261.41852948  .00024343  00000+0  16456-2 0  9993
2 45755  53.0540 311.5608 0001465  94.9648 265.1508 15.06442868181444
STARLINK-1484           
1 45756U 20038AC  23261.41390314  .00012963  00000+0  88704-3 0  9999
2 45756  53.0544 311.5742 0001151  99.4355 260.6764 15.06420336180321
STARLINK-1486           
1 45757U 20038AD  23261.47725242  .00007669  00000+0  36456-3 0  9992
2 45757  53.0536 297.1294 0001961  69.3640 290.7565 15.20142865180536
STARLINK-1487           
1 45758U 20038AE  23261.32424165  .00010322  00000+0  47094-3 0  9997
2 45758  53.0620 296.3203 0003091  95.0177 265.1171 15.21187992180539
STARLINK-1493           
1 45759U 20038AF  23261.40747205  .00019442  00000+0  13194-2 0  9995
2 45759  53.0544 311.6121 0001359  89.2005 270.9140 15.06431388180326
STARLINK-1494           
1 45760U 20038AG  23261.41115782  .00023358  00000+0  15803-2 0  9997
2 45760  53.0535 311.5962 0001366  95.5132 264.6013 15.06435470180335
STARLINK-1499           
1 45762U 20038AJ  23261.37406283  .00009286  00000+0  40443-3 0  9996
2 45762  53.0210 281.5942 0001873  31.7640 328.3469 15.22906186180765
STARLINK-1502           
1 45764U 20038AL  23261.37430321  .00016059  00000+0  10935-2 0  9996
2 45764  53.0540 311.7623 0001402 106.1473 253.9671 15.06434520181257
STARLINK-1509           
1 45766U 20038AN  23261.30418224  .00013668  00000+0  49849-3 0  9999
2 45766  53.0461 288.2580 0003170  54.1008 306.0284 15.28459232180644
STARLINK-1511           
1 45767U 20038AP  23261.42221549  .00019235  00000+0  13055-2 0  9990
2 45767  53.0542 311.5457 0001365  92.6862 267.4283 15.06433646180328
STARLINK-1521           
1 45768U 20038AQ  23261.40378659  .00016748  00000+0  11396-2 0  9996
2 45768  53.0535 311.6285 0001402  98.5348 261.5800 15.06431773180337
STARLINK-1459           
1 45769U 20038AR  23261.43048477  .00025060  00000+0  16943-2 0  9992
2 45769  53.0542 331.5399 0001598  63.3313 296.7839 15.06421031180058
STARLINK-1462           
1 45770U 20038AS  23261.36413999  .00013813  00000+0  94354-3 0  9997
2 45770  53.0532 291.8049 0001433  92.6339 267.4814 15.06432923180599
STARLINK-1463           
1 45771U 20038AT  23261.35771324  .00018570  00000+0  12612-2 0  9997
2 45771  53.0536 291.8354 0001423  92.8700 267.2452 15.06432340180595
STARLINK-1470           
1 45772U 20038AU  23261.41300135  .00014328  00000+0  97816-3 0  9990
2 45772  53.0535 291.5855 0001388 100.9982 259.1163 15.06424767180617
STARLINK-1482           
1 45773U 20038AV  23261.47197491  .00010858  00000+0  74617-3 0  9994
2 45773  53.0529 291.3228 0001326 102.7022 257.4116 15.06426102180625
STARLINK-1485           
1 45774U 20038AW  23261.44248486  .00012501  00000+0  85594-3 0  9996
2 45774  53.0539 291.4552 0001508 105.9433 254.1722 15.06428980180613
STARLINK-1488           
1 45775U 20038AX  23261.30487227  .00033835  00000+0  14970-2 0  9992
2 45775  53.0506 272.4415 0005387  42.0330 318.1078 15.21382685180883
STARLINK-1489           
1 45776U 20038AY  23261.45354650  .00015368  00000+0  10476-2 0  9990
2 45776  53.0528 291.4068 0001400  99.9013 260.2134 15.06426351181731
STARLINK-1490           
1 45777U 20038AZ  23261.33111859  .00009509  00000+0  46927-3 0  9991
2 45777  53.0518 282.3294 0004371  70.1556 289.9909 15.18550311180749
STARLINK-1491           
1 45778U 20038BA  23261.36508501  .00014832  00000+0  10116-2 0  9994
2 45778  53.0531 291.8035 0001427 107.4935 252.6210 15.06433662181713
STARLINK-1492           
1 45779U 20038BB  23261.53201513  .00010589  00000+0  45684-3 0  9991
2 45779  53.0352 264.8652 0002927  64.4509 295.6789 15.23078824182112
STARLINK-1496           
1 45780U 20038BC  23261.37245636  .00018349  00000+0  12466-2 0  9992
2 45780  53.0545 291.7684 0001585 103.4666 256.6500 15.06427840180594
STARLINK-1497           
1 45781U 20038BD  23261.39825528  .00017453  00000+0  11867-2 0  9998
2 45781  53.0529 291.6536 0001461 100.3607 259.7547 15.06430105180601
STARLINK-1498           
1 45782U 20038BE  23261.49381727  .00012488  00000+0  52810-3 0  9995
2 45782  53.0452 264.3687 0006159  30.5080 329.6274 15.23582388181019
STARLINK-1505           
1 45783U 20038BF  23261.39457110  .00016328  00000+0  11116-2 0  9995
2 45783  53.0539 291.6697 0001397  98.8415 261.2732 15.06430395180614
STARLINK-1510           
1 45784U 20038BG  23261.36876609  .00007996  00000+0  55471-3 0  9995
2 45784  53.0534 291.7838 0001559 101.3954 258.7210 15.06426042180601
STARLINK-1512           
1 45785U 20038BH  23261.35034275  .00011730  00000+0  80461-3 0  9998
2 45785  53.0533 291.8698 0001498  93.9178 266.1982 15.06421127181522
STARLINK-1513           
1 45786U 20038BJ  23261.46829314  .00018750  00000+0  12733-2 0  9992
2 45786  53.0525 291.3340 0001398  80.1274 279.9873 15.06428189180623
STARLINK-1517           
1 45787U 20038BK  23261.40931515  .00016399  00000+0  11165-2 0  9999
2 45787  53.0530 291.6051 0001386 103.4198 256.6946 15.06425007180611
STARLINK-1522           
1 46027U 20055A   23261.31624226  .00023406  00000+0  15832-2 0  9996
2 46027  53.0546 222.0203 0001327  98.0366 262.0773 15.06442446172722
STARLINK-1523           
1 46028U 20055B   23261.26463904  .00023921  00000+0  16175-2 0  9998
2 46028  53.0541 222.2497 0001183 108.9258 251.1859 15.06442772172733
STARLINK-1526           
1 46029U 20055C   23261.32361471  .00019550  00000+0  13264-2 0  9991
2 46029  53.0538 221.9854 0001152  83.2922 276.8198 15.06437774172738
STARLINK-1534           
1 46030U 20055D   23261.20934867  .00001039  00000+0  88630-4 0  9999
2 46030  53.0546 222.5011 0001367  93.4277 266.6868 15.06407711172677
STARLINK-1544           
1 46031U 20055E   23261.41114806  .00000777  00000+0  71054-4 0  9996
2 46031  53.0551 221.5826 0001202  91.3117 268.8010 15.06395034172739
STARLINK-1555           
1 46032U 20055F   23261.17618803  .00022298  00000+0  15098-2 0  9992
2 46032  53.0542 222.6484 0001164  82.5643 277.5479 15.06431796172715
STARLINK-1556           
1 46033U 20055G   23261.15775234  .00024364  00000+0  16473-2 0  9997
2 46033  53.0541 222.7304 0001241  95.6426 264.4705 15.06436038172684
STARLINK-1557           
1 46034U 20055H   23261.16144008  .00026774  00000+0  18078-2 0  9998
2 46034  53.0539 222.7126 0001203  97.1557 262.9569 15.06435470172684
STARLINK-1558           
